{
  "type": "FeatureCollection",
  "features": [
    {
      "type": "Feature",
      "properties": {
        "norad_id": 54741,
        "name": "GALAXY 35 (G-35)",
        "group": "intelsat",
        "lat": 0.026293917395108026,
        "lon": 116.26665974436855,
        "alt_km": 35794.95887280298,
        "timestamp": "2025-12-24T07:45:05.866830+00:00",
        "meta_object_name": "GALAXY 35 (G-35)",
        "meta_object_id": "2022-170A",
        "meta_epoch": "2025-12-23T08:01:29.618112",
        "meta_mean_motion": 1.00271513,
        "meta_eccentricity": 0.00022267,
        "meta_inclination": 0.0237,
        "meta_ra_of_asc_node": 89.5985,
        "meta_arg_of_pericenter": 184.9398,
        "meta_mean_anomaly": 204.8698,
        "meta_ephemeris_type": 0,
        "meta_classification_type": "U",
        "meta_norad_cat_id": 54741,
        "meta_element_set_no": 999,
        "meta_rev_at_epoch": 1113,
        "meta_bstar": 0,
        "meta_mean_motion_dot": -1.41e-06,
        "meta_mean_motion_ddot": 0,
        "tle_line1": "1 54741U 22170A   25357.33437058 -.00000141  00000+0  00000+0 0  9993",
        "tle_line2": "2 54741   0.0237  89.5985 0002226 184.9398 204.8698  1.00271513 11136"
      },
      "geometry": {
        "type": "Point",
        "coordinates": [
          116.26665974436855,
          0.026293917395108026
        ]
      }
    },
    {
      "type": "Feature",
      "properties": {
        "norad_id": 54742,
        "name": "GALAXY 36 (G-36)",
        "group": "intelsat",
        "lat": 0.03230025935859067,
        "lon": 120.36567582504547,
        "alt_km": 35788.02387675467,
        "timestamp": "2025-12-24T07:45:05.866841+00:00",
        "meta_object_name": "GALAXY 36 (G-36)",
        "meta_object_id": "2022-170B",
        "meta_epoch": "2025-12-23T08:03:26.169120",
        "meta_mean_motion": 1.00270368,
        "meta_eccentricity": 4.615e-05,
        "meta_inclination": 0.0187,
        "meta_ra_of_asc_node": 67.8627,
        "meta_arg_of_pericenter": 272.3053,
        "meta_mean_anomaly": 143.8174,
        "meta_ephemeris_type": 0,
        "meta_classification_type": "U",
        "meta_norad_cat_id": 54742,
        "meta_element_set_no": 999,
        "meta_rev_at_epoch": 1101,
        "meta_bstar": 0,
        "meta_mean_motion_dot": -1.64e-06,
        "meta_mean_motion_ddot": 0,
        "tle_line1": "1 54742U 22170B   25357.33571955 -.00000164  00000+0  00000+0 0  9994",
        "tle_line2": "2 54742   0.0187  67.8627 0000461 272.3053 143.8174  1.00270368 11017"
      },
      "geometry": {
        "type": "Point",
        "coordinates": [
          120.36567582504547,
          0.03230025935859067
        ]
      }
    },
    {
      "type": "Feature",
      "properties": {
        "norad_id": 57493,
        "name": "GALAXY 37 (G-37)",
        "group": "intelsat",
        "lat": 0.038305967473897355,
        "lon": 82.36424996746246,
        "alt_km": 35794.429699132714,
        "timestamp": "2025-12-24T07:45:05.866852+00:00",
        "meta_object_name": "GALAXY 37 (G-37)",
        "meta_object_id": "2023-112A",
        "meta_epoch": "2025-12-23T15:57:05.584608",
        "meta_mean_motion": 1.00271472,
        "meta_eccentricity": 0.00020231,
        "meta_inclination": 0.0168,
        "meta_ra_of_asc_node": 359.8398,
        "meta_arg_of_pericenter": 276.5793,
        "meta_mean_anomaly": 288.2964,
        "meta_ephemeris_type": 0,
        "meta_classification_type": "U",
        "meta_norad_cat_id": 57493,
        "meta_element_set_no": 999,
        "meta_rev_at_epoch": 878,
        "meta_bstar": 0,
        "meta_mean_motion_dot": 6.9e-07,
        "meta_mean_motion_ddot": 0,
        "tle_line1": "1 57493U 23112A   25357.66464797  .00000069  00000+0  00000+0 0  9991",
        "tle_line2": "2 57493   0.0168 359.8398 0002023 276.5793 288.2964  1.00271472  8782"
      },
      "geometry": {
        "type": "Point",
        "coordinates": [
          82.36424996746246,
          0.038305967473897355
        ]
      }
    }
  ]
}